NORAD_CAT_ID,OBJECT_NAME,OBJECT_TYPE,EPOCH,MEAN_MOTION,ECCENTRICITY,INCLINATION,RA_OF_ASC_NODE,ARG_OF_PERICENTER,MEAN_ANOMALY,BSTAR,MEAN_MOTION_DOT,MEAN_MOTION_DDOT,TLE_LINE0,TLE_LINE1,TLE_LINE2,SEMIMAJOR_AXIS,PERIOD,APOGEE,PERIGEE,DECAYED
55745.0,STARLINK-5565,PAYLOAD,2023-09-27 08:40:21,14.98340063,0.0003483,69.9988,339.573,268.1634,91.9126,8.8605e-05,9.65e-06,0.0,0 STARLINK-5565,1 55745U 23028E   23270.36136201  .00000965  00000-0  88605-4 0  9998,2 55745  69.9988 339.5730 0003483 268.1634  91.9126 14.98340063 32073,6950.162,96.106,574.448,569.606,0.0
55745.0,STARLINK-5565,PAYLOAD,2023-09-27 11:52:37,14.98340234,0.0003275,70.0009,339.2365,264.8758,95.2027,0.00021932,2.526e-05,0.0,0 STARLINK-5565,1 55745U 23028E   23270.49488171  .00002526  00000-0  21932-3 0  9992,2 55745  70.0009 339.2365 0003275 264.8758  95.2027 14.98340234 32099,6950.161,96.106,574.302,569.75,0.0
55745.0,STARLINK-5565,PAYLOAD,2023-09-28 11:54:39,14.98325443,0.0002783,70.0022,336.7129,256.9254,103.1594,8.6646e-05,9.41e-06,0.0,0 STARLINK-5565,1 55745U 23028E   23271.49628907  .00000941  00000-0  86646-4 0  9999,2 55745  70.0022 336.7129 0002783 256.9254 103.1594 14.98325443 32240,6950.207,96.107,574.006,570.138,0.0
55745.0,STARLINK-5565,PAYLOAD,2023-09-28 13:30:47,14.98324452,0.0002958,70.0001,336.5439,260.0308,100.0517,0.00015114,1.711e-05,0.0,0 STARLINK-5565,1 55745U 23028E   23271.56305160  .00001711  00000-0  15114-3 0  9997,2 55745  70.0001 336.5439 0002958 260.0308 100.0517 14.98324452 32250,6950.21,96.107,574.131,570.019,0.0
55745.0,STARLINK-5565,PAYLOAD,2023-09-29 13:32:48,14.98333077,0.0002886,70.0002,334.019,256.4718,103.612,-5.2294e-06,-1.55e-06,0.0,0 STARLINK-5565,1 55745U 23028E   23272.56444624 -.00000155  00000-0 -52294-5 0  9992,2 55745  70.0002 334.0190 0002886 256.4718 103.6120 14.98333077 32401,6950.183,96.107,574.054,570.043,0.0
55745.0,STARLINK-5565,PAYLOAD,2023-09-30 05:34:08,14.98332878,0.0003133,69.9994,332.335,262.2678,97.8125,0.00013862,1.561e-05,0.0,0 STARLINK-5565,1 55745U 23028E   23273.23204180  .00001561  00000-0  13862-3 0  9994,2 55745  69.9994 332.3350 0003133 262.2678  97.8125 14.98332878 32501,6950.184,96.107,574.226,569.871,0.0
55745.0,STARLINK-5565,PAYLOAD,2023-09-30 13:34:48,14.98336638,0.0003186,69.9992,331.4924,269.2652,90.8142,0.00017714,2.022e-05,0.0,0 STARLINK-5565,1 55745U 23028E   23273.56583871  .00002022  00000-0  17714-3 0  9990,2 55745  69.9992 331.4924 0003186 269.2652  90.8142 14.98336638 32558,6950.172,96.107,574.252,569.823,0.0
55745.0,STARLINK-5565,PAYLOAD,2023-09-30 21:35:29,14.98332282,0.0003088,69.9994,330.651,269.6335,90.447,8.9128e-05,9.71e-06,0.0,0 STARLINK-5565,1 55745U 23028E   23273.89964274  .00000971  00000-0  89128-4 0  9996,2 55745  69.9994 330.6510 0003088 269.6335  90.4470 14.98332282 32602,6950.186,96.107,574.197,569.905,0.0
55745.0,STARLINK-5565,PAYLOAD,2023-10-01 13:36:49,14.98336443,0.0003081,69.9993,328.9668,267.6211,92.4596,0.00011024,1.223e-05,0.0,0 STARLINK-5565,1 55745U 23028E   23274.56723829  .00001223  00000-0  11024-3 0  9990,2 55745  69.9993 328.9668 0003081 267.6211  92.4596 14.98336443 32704,6950.173,96.107,574.179,569.897,0.0
55745.0,STARLINK-5565,PAYLOAD,2023-10-01 21:37:30,14.98330584,0.0003027,69.9993,328.1245,267.7236,92.3576,-5.961e-06,-1.64e-06,0.0,0 STARLINK-5565,1 55745U 23028E   23274.90104367 -.00000164  00000-0 -59610-5 0  9998,2 55745  69.9993 328.1245 0003027 267.7236  92.3576 14.98330584 32757,6950.191,96.107,574.16,569.952,0.0
55745.0,STARLINK-5565,PAYLOAD,2023-10-02 13:38:51,14.9830749,0.0002864,69.999,326.4417,264.1154,95.9678,0.00029988,3.485e-05,0.0,0 STARLINK-5565,1 55745U 23028E   23275.56865261  .00003485  00000-0  29988-3 0  9998,2 55745  69.9990 326.4417 0002864 264.1154  95.9678 14.98307490 32857,6950.263,96.108,574.118,570.137,0.0
55745.0,STARLINK-5565,PAYLOAD,2023-10-03 04:04:03,14.98331497,0.0003138,69.9989,324.9274,270.0305,90.0495,4.7825e-05,4.78e-06,0.0,0 STARLINK-5565,1 55745U 23028E   23276.16948245  .00000478  00000-0  47825-4 0  9999,2 55745  69.9989 324.9274 0003138 270.0305  90.0495 14.98331497 32945,6950.188,96.107,574.234,569.872,0.0
55745.0,STARLINK-5565,PAYLOAD,2023-10-03 13:40:51,14.98337303,0.0003123,69.9987,323.9174,269.9787,90.1015,8.3259e-05,9.01e-06,0.0,0 STARLINK-5565,1 55745U 23028E   23276.57003736  .00000901  00000-0  83259-4 0  9993,2 55745  69.9987 323.9174 0003123 269.9787  90.1015 14.98337303 33005,6950.17,96.107,574.206,569.865,0.0
55745.0,STARLINK-5565,PAYLOAD,2023-10-04 10:30:36,14.98330374,0.0003158,69.9984,321.7289,272.1874,87.8924,0.00014631,1.653e-05,0.0,0 STARLINK-5565,1 55745U 23028E   23277.43792020  .00001653  00000-0  14631-3 0  9992,2 55745  69.9984 321.7289 0003158 272.1874  87.8924 14.98330374 33133,6950.192,96.107,574.252,569.862,0.0
55745.0,STARLINK-5565,PAYLOAD,2023-10-04 12:06:44,14.98331354,0.000315,69.9984,321.5606,272.0849,87.9949,0.00015644,1.774e-05,0.0,0 STARLINK-5565,1 55745U 23028E   23277.50467958  .00001774  00000-0  15644-3 0  9998,2 55745  69.9984 321.5606 0003150 272.0849  87.9949 14.98331354 33145,6950.189,96.107,574.243,569.864,0.0
55745.0,STARLINK-5565,PAYLOAD,2023-10-04 20:07:24,14.98328763,0.0003104,69.9985,320.7187,274.6068,85.4737,0.00015971,1.813e-05,0.0,0 STARLINK-5565,1 55745U 23028E   23277.83848156  .00001813  00000-0  15971-3 0  9994,2 55745  69.9985 320.7187 0003104 274.6068  85.4737 14.98328763 33194,6950.197,96.107,574.219,569.904,0.0
55745.0,STARLINK-5565,PAYLOAD,2023-10-05 10:32:36,14.98360588,0.0003101,69.9988,319.2043,272.3907,87.6896,-0.0005153,-6.241e-05,0.0,0 STARLINK-5565,1 55745U 23028E   23278.43931389 -.00006241  00000-0 -51530-3 0  9995,2 55745  69.9988 319.2043 0003101 272.3907  87.6896 14.98360588 33286,6950.098,96.105,574.119,569.808,0.0
55745.0,STARLINK-5565,PAYLOAD,2023-10-05 13:44:53,14.9833272,0.0002949,69.9988,318.8676,273.6216,86.4606,1.9247e-05,1.37e-06,0.0,0 STARLINK-5565,1 55745U 23028E   23278.57284123  .00000137  00000-0  19247-4 0  9993,2 55745  69.9988 318.8676 0002949 273.6216  86.4606 14.98332720 33305,6950.184,96.107,574.099,570.0,0.0
55745.0,STARLINK-5565,PAYLOAD,2023-10-06 12:10:46,14.98329054,0.0002933,69.9986,316.5109,272.5392,87.5432,1.6445e-05,1.03e-06,0.0,0 STARLINK-5565,1 55745U 23028E   23279.50748308  .00000103  00000-0  16445-4 0  9997,2 55745  69.9986 316.5109 0002933 272.5392  87.5432 14.98329054 33445,6950.196,96.107,574.099,570.022,0.0
55745.0,STARLINK-5565,PAYLOAD,2023-10-06 20:11:26,14.98329283,0.0002969,69.9984,315.6689,272.9061,87.1758,1.4053e-05,7.5e-07,0.0,0 STARLINK-5565,1 55745U 23028E   23279.84128311  .00000075  00000-0  14053-4 0  9991,2 55745  69.9984 315.6689 0002969 272.9061  87.1758 14.98329283 33498,6950.195,96.107,574.124,569.997,0.0
55745.0,STARLINK-5565,PAYLOAD,2023-10-07 12:12:47,14.98333047,0.0002971,69.9982,313.9846,271.234,88.8479,0.00010223,1.127e-05,0.0,0 STARLINK-5565,1 55745U 23028E   23280.50887887  .00001127  00000-0  10223-3 0  9999,2 55745  69.9982 313.9846 0002971 271.2340  88.8479 14.98333047 33599,6950.183,96.107,574.113,569.984,0.0
55745.0,STARLINK-5565,PAYLOAD,2023-10-07 20:13:27,14.98325605,0.0002973,69.998,313.1423,270.7346,89.3472,0.00014447,1.631e-05,0.0,0 STARLINK-5565,1 55745U 23028E   23280.84268283  .00001631  00000-0  14447-3 0  9991,2 55745  69.9980 313.1423 0002973 270.7346  89.3472 14.98325605 33648,6950.206,96.107,574.138,570.005,0.0
55745.0,STARLINK-5565,PAYLOAD,2023-10-08 02:37:59,14.98330219,0.0002888,69.9982,312.4691,270.2093,89.8735,8.7407e-05,9.5e-06,0.0,0 STARLINK-5565,1 55745U 23028E   23281.10972102  .00000950  00000-0  87407-4 0  9993,2 55745  69.9982 312.4691 0002888 270.2093  89.8735 14.98330219 33686,6950.192,96.107,574.064,570.05,0.0
55745.0,STARLINK-5565,PAYLOAD,2023-10-08 12:14:48,14.98331056,0.0002967,69.9981,311.4598,270.6981,89.3839,9.1355e-05,9.97e-06,0.0,0 STARLINK-5565,1 55745U 23028E   23281.51028076  .00000997  00000-0  91355-4 0  9998,2 55745  69.9981 311.4598 0002967 270.6981  89.3839 14.98331056 33745,6950.19,96.107,574.117,569.993,0.0
55745.0,STARLINK-5565,PAYLOAD,2023-10-09 02:40:00,14.98324888,0.0003009,69.998,309.9445,272.1696,87.9119,0.00018225,2.082e-05,0.0,0 STARLINK-5565,1 55745U 23028E   23282.11112216  .00002082  00000-0  18225-3 0  9996,2 55745  69.9980 309.9445 0003009 272.1696  87.9119 14.98324888 33835,6950.209,96.107,574.165,569.982,0.0
55745.0,STARLINK-5565,PAYLOAD,2023-10-09 12:16:48,14.98337959,0.0002938,69.998,308.9344,274.3572,85.7251,7.4817e-05,8e-06,0.0,0 STARLINK-5565,1 55745U 23028E   23282.51167561  .00000800  00000-0  74817-4 0  9999,2 55745  69.9980 308.9344 0002938 274.3572  85.7251 14.98337959 33891,6950.168,96.106,574.075,569.991,0.0
55745.0,STARLINK-5565,PAYLOAD,2023-10-10 02:42:01,14.98331128,0.0002925,69.9979,307.4193,274.3828,85.6996,4.708e-05,4.69e-06,0.0,0 STARLINK-5565,1 55745U 23028E   23283.11251927  .00000469  00000-0  47080-4 0  9999,2 55745  69.9979 307.4193 0002925 274.3828  85.6996 14.98331128 33982,6950.189,96.107,574.087,570.021,0.0
55745.0,STARLINK-5565,PAYLOAD,2023-10-10 10:42:41,14.98333176,0.0002728,69.9983,306.5784,264.7269,95.3578,5.1507e-05,5.22e-06,0.0,0 STARLINK-5565,1 55745U 23028E   23283.44631687  .00000522  00000-0  51507-4 0  9999,2 55745  69.9983 306.5784 0002728 264.7269  95.3578 14.98333176 34032,6950.183,96.107,573.944,570.152,0.0
55745.0,STARLINK-5565,PAYLOAD,2023-10-11 02:44:02,14.983269,0.0002567,69.9985,304.8945,259.609,100.478,4.8479e-06,-3.5e-07,0.0,0 STARLINK-5565,1 55745U 23028E   23284.11392176 -.00000035  00000-0  48479-5 0  9996,2 55745  69.9985 304.8945 0002567 259.6090 100.4780 14.98326900 34131,6950.202,96.107,573.852,570.283,0.0
55745.0,STARLINK-5565,PAYLOAD,2023-10-11 10:44:43,14.98324297,0.0002726,69.998,304.0522,263.9637,96.1211,-2.6051e-05,-4.04e-06,0.0,0 STARLINK-5565,1 55745U 23028E   23284.44772547 -.00000404  00000-0 -26051-4 0  9998,2 55745  69.9980 304.0522 0002726 263.9637  96.1211 14.98324297 34183,6950.211,96.107,573.97,570.181,0.0
